{
  "type": "FeatureCollection",
  "features": [
    {
      "type": "Feature",
      "properties": {
        "norad_id": 36442,
        "name": "COSMOS 2251 DEB",
        "group": "cosmos-2251-debris",
        "lat": 43.09089645544155,
        "lon": -164.3192981029637,
        "alt_km": 473.17349794125585,
        "timestamp": "2025-12-16T10:53:45.868397+00:00",
        "meta_object_name": "COSMOS 2251 DEB",
        "meta_object_id": "1993-036BAR",
        "meta_epoch": "2025-12-13T10:09:44.142048",
        "meta_mean_motion": 15.30178674,
        "meta_eccentricity": 0.00085328,
        "meta_inclination": 73.9496,
        "meta_ra_of_asc_node": 37.7946,
        "meta_arg_of_pericenter": 324.6725,
        "meta_mean_anomaly": 35.3911,
        "meta_ephemeris_type": 0,
        "meta_classification_type": "U",
        "meta_norad_cat_id": 36442,
        "meta_element_set_no": 999,
        "meta_rev_at_epoch": 85926,
        "meta_bstar": 0.0075856442,
        "meta_mean_motion_dot": 0.00228665,
        "meta_mean_motion_ddot": 0,
        "tle_line1": "1 36442U 93036BAR 25347.42342757  .00228665  00000+0  75856-2 0  9996",
        "tle_line2": "2 36442  73.9496  37.7946 0008532 324.6725  35.3911 15.30178674859266"
      },
      "geometry": {
        "type": "Point",
        "coordinates": [
          -164.3192981029637,
          43.09089645544155
        ]
      }
    },
    {
      "type": "Feature",
      "properties": {
        "norad_id": 36451,
        "name": "COSMOS 2251 DEB",
        "group": "cosmos-2251-debris",
        "lat": -38.66911467391798,
        "lon": -44.75352491396218,
        "alt_km": 964.8682475708529,
        "timestamp": "2025-12-16T10:53:45.868407+00:00",
        "meta_object_name": "COSMOS 2251 DEB",
        "meta_object_id": "1993-036BBA",
        "meta_epoch": "2025-12-08T10:10:07.447584",
        "meta_mean_motion": 14.18724413,
        "meta_eccentricity": 0.01840749,
        "meta_inclination": 73.9539,
        "meta_ra_of_asc_node": 342.9701,
        "meta_arg_of_pericenter": 168.3937,
        "meta_mean_anomaly": 192.1542,
        "meta_ephemeris_type": 0,
        "meta_classification_type": "U",
        "meta_norad_cat_id": 36451,
        "meta_element_set_no": 999,
        "meta_rev_at_epoch": 84164,
        "meta_bstar": 0.0010726423,
        "meta_mean_motion_dot": 2.61e-05,
        "meta_mean_motion_ddot": 0,
        "tle_line1": "1 36451U 93036BBA 25342.42369731  .00002610  00000+0  10726-2 0  9997",
        "tle_line2": "2 36451  73.9539 342.9701 0184074 168.3937 192.1542 14.18724413841646"
      },
      "geometry": {
        "type": "Point",
        "coordinates": [
          -44.75352491396218,
          -38.66911467391798
        ]
      }
    },
    {
      "type": "Feature",
      "properties": {
        "norad_id": 36453,
        "name": "COSMOS 2251 DEB",
        "group": "cosmos-2251-debris",
        "lat": -52.173504644758324,
        "lon": 123.53135182107714,
        "alt_km": 734.5373999612793,
        "timestamp": "2025-12-16T10:53:45.868418+00:00",
        "meta_object_name": "COSMOS 2251 DEB",
        "meta_object_id": "1993-036BBC",
        "meta_epoch": "2025-12-14T21:50:20.335776",
        "meta_mean_motion": 14.5262544,
        "meta_eccentricity": 0.00704026,
        "meta_inclination": 73.9229,
        "meta_ra_of_asc_node": 148.2665,
        "meta_arg_of_pericenter": 51.0151,
        "meta_mean_anomaly": 103.2875,
        "meta_ephemeris_type": 0,
        "meta_classification_type": "U",
        "meta_norad_cat_id": 36453,
        "meta_element_set_no": 999,
        "meta_rev_at_epoch": 84499,
        "meta_bstar": 0.00063328924,
        "meta_mean_motion_dot": 2.649e-05,
        "meta_mean_motion_ddot": 0,
        "tle_line1": "1 36453U 93036BBC 25348.90995759  .00002649  00000+0  63329-3 0  9993",
        "tle_line2": "2 36453  73.9229 148.2665 0070402  51.0151 103.2875 14.52625440844996"
      },
      "geometry": {
        "type": "Point",
        "coordinates": [
          123.53135182107714,
          -52.173504644758324
        ]
      }
    },
    {
      "type": "Feature",
      "properties": {
        "norad_id": 36459,
        "name": "COSMOS 2251 DEB",
        "group": "cosmos-2251-debris",
        "lat": -51.67661772108515,
        "lon": -165.69849435587017,
        "alt_km": 878.0830810257858,
        "timestamp": "2025-12-16T10:53:45.868428+00:00",
        "meta_object_name": "COSMOS 2251 DEB",
        "meta_object_id": "1993-036BBJ",
        "meta_epoch": "2025-12-15T06:52:40.994112",
        "meta_mean_motion": 14.2642949,
        "meta_eccentricity": 0.01133967,
        "meta_inclination": 74.0484,
        "meta_ra_of_asc_node": 355.1955,
        "meta_arg_of_pericenter": 90.2624,
        "meta_mean_anomaly": 271.1518,
        "meta_ephemeris_type": 0,
        "meta_classification_type": "U",
        "meta_norad_cat_id": 36459,
        "meta_element_set_no": 999,
        "meta_rev_at_epoch": 7918,
        "meta_bstar": 0.0010918207,
        "meta_mean_motion_dot": 2.788e-05,
        "meta_mean_motion_ddot": 0,
        "tle_line1": "1 36459U 93036BBJ 25349.28658558  .00002788  00000+0  10918-2 0  9993",
        "tle_line2": "2 36459  74.0484 355.1955 0113396  90.2624 271.1518 14.26429490 79186"
      },
      "geometry": {
        "type": "Point",
        "coordinates": [
          -165.69849435587017,
          -51.67661772108515
        ]
      }
    },
    {
      "type": "Feature",
      "properties": {
        "norad_id": 36470,
        "name": "COSMOS 2251 DEB",
        "group": "cosmos-2251-debris",
        "lat": -71.34028358193686,
        "lon": -172.45692133789552,
        "alt_km": 564.2490572265724,
        "timestamp": "2025-12-16T10:53:45.868438+00:00",
        "meta_object_name": "COSMOS 2251 DEB",
        "meta_object_id": "1993-036BBV",
        "meta_epoch": "2025-12-15T00:13:00.014016",
        "meta_mean_motion": 15.07582269,
        "meta_eccentricity": 0.00222568,
        "meta_inclination": 73.8449,
        "meta_ra_of_asc_node": 249.6845,
        "meta_arg_of_pericenter": 78.1368,
        "meta_mean_anomaly": 282.2316,
        "meta_ephemeris_type": 0,
        "meta_classification_type": "U",
        "meta_norad_cat_id": 36470,
        "meta_element_set_no": 999,
        "meta_rev_at_epoch": 66128,
        "meta_bstar": 0.0018721064,
        "meta_mean_motion_dot": 0.0002872,
        "meta_mean_motion_ddot": 0,
        "tle_line1": "1 36470U 93036BBV 25349.00902794  .00028720  00000+0  18721-2 0  9994",
        "tle_line2": "2 36470  73.8449 249.6845 0022256  78.1368 282.2316 15.07582269661287"
      },
      "geometry": {
        "type": "Point",
        "coordinates": [
          -172.45692133789552,
          -71.34028358193686
        ]
      }
    },
    {
      "type": "Feature",
      "properties": {
        "norad_id": 36528,
        "name": "COSMOS 2251 DEB",
        "group": "cosmos-2251-debris",
        "lat": 41.12667858244748,
        "lon": 152.94488492494716,
        "alt_km": 834.7617503223146,
        "timestamp": "2025-12-16T10:53:45.868448+00:00",
        "meta_object_name": "COSMOS 2251 DEB",
        "meta_object_id": "1993-036BCN",
        "meta_epoch": "2025-12-14T16:44:10.040352",
        "meta_mean_motion": 14.30658136,
        "meta_eccentricity": 0.00847741,
        "meta_inclination": 74.0159,
        "meta_ra_of_asc_node": 141.651,
        "meta_arg_of_pericenter": 190.7529,
        "meta_mean_anomaly": 169.1813,
        "meta_ephemeris_type": 0,
        "meta_classification_type": "U",
        "meta_norad_cat_id": 36528,
        "meta_element_set_no": 999,
        "meta_rev_at_epoch": 64455,
        "meta_bstar": 0.0012089622,
        "meta_mean_motion_dot": 3.261e-05,
        "meta_mean_motion_ddot": 0,
        "tle_line1": "1 36528U 93036BCN 25348.69733843  .00003261  00000+0  12090-2 0  9995",
        "tle_line2": "2 36528  74.0159 141.6510 0084774 190.7529 169.1813 14.30658136644553"
      },
      "geometry": {
        "type": "Point",
        "coordinates": [
          152.94488492494716,
          41.12667858244748
        ]
      }
    },
    {
      "type": "Feature",
      "properties": {
        "norad_id": 36533,
        "name": "COSMOS 2251 DEB",
        "group": "cosmos-2251-debris",
        "lat": 72.3255037377893,
        "lon": -136.28506057438935,
        "alt_km": 751.5054920537377,
        "timestamp": "2025-12-16T10:53:45.868458+00:00",
        "meta_object_name": "COSMOS 2251 DEB",
        "meta_object_id": "1993-036BCT",
        "meta_epoch": "2025-12-15T17:53:01.504320",
        "meta_mean_motion": 14.49828395,
        "meta_eccentricity": 0.00492875,
        "meta_inclination": 74.0116,
        "meta_ra_of_asc_node": 109.1758,
        "meta_arg_of_pericenter": 257.8453,
        "meta_mean_anomaly": 101.7184,
        "meta_ephemeris_type": 0,
        "meta_classification_type": "U",
        "meta_norad_cat_id": 36533,
        "meta_element_set_no": 999,
        "meta_rev_at_epoch": 84528,
        "meta_bstar": 0.00040495096,
        "meta_mean_motion_dot": 1.558e-05,
        "meta_mean_motion_ddot": 0,
        "tle_line1": "1 36533U 93036BCT 25349.74515630  .00001558  00000+0  40495-3 0  9998",
        "tle_line2": "2 36533  74.0116 109.1758 0049287 257.8453 101.7184 14.49828395845288"
      },
      "geometry": {
        "type": "Point",
        "coordinates": [
          -136.28506057438935,
          72.3255037377893
        ]
      }
    }
  ]
}